{
    "links": {
        "self": "http://www.neowsapp.com/rest/v1/neo/3444442?api_key=iIulBulltgU6a56xZRHN4H3l9WmuAYTsLGpBGhQ2"
    },
    "id": "3444442",
    "neo_reference_id": "3444442",
    "name": "(2009 BU5)",
    "designation": "2009 BU5",
    "nasa_jpl_url": "http://ssd.jpl.nasa.gov/sbdb.cgi?sstr=3444442",
    "absolute_magnitude_h": 21.7,
    "estimated_diameter": {
        "kilometers": {
            "estimated_diameter_min": 0.1214940408,
            "estimated_diameter_max": 0.2716689341
        },
        "meters": {
            "estimated_diameter_min": 121.4940407996,
            "estimated_diameter_max": 271.6689340891
        },
        "miles": {
            "estimated_diameter_min": 0.0754928736,
            "estimated_diameter_max": 0.1688071972
        },
        "feet": {
            "estimated_diameter_min": 398.6025088171,
            "estimated_diameter_max": 891.3023057169
        }
    },
    "is_potentially_hazardous_asteroid": false,
    "close_approach_data": [
        {
            "close_approach_date": "2008-11-03",
            "close_approach_date_full": "2008-Nov-03 16:31",
            "epoch_date_close_approach": 1225729860000,
            "relative_velocity": {
                "kilometers_per_second": "17.2403166699",
                "kilometers_per_hour": "62065.1400117131",
                "miles_per_hour": "38564.8643589447"
            },
            "miss_distance": {
                "astronomical": "0.0753130301",
                "lunar": "29.2967687089",
                "kilometers": "11266668.886205887",
                "miles": "7000783.4152477606"
            },
            "orbiting_body": "Venus"
        },
        {
            "close_approach_date": "2009-01-14",
            "close_approach_date_full": "2009-Jan-14 02:33",
            "epoch_date_close_approach": 1231900380000,
            "relative_velocity": {
                "kilometers_per_second": "21.8843077584",
                "kilometers_per_hour": "78783.5079300658",
                "miles_per_hour": "48953.0080246567"
            },
            "miss_distance": {
                "astronomical": "0.0803096576",
                "lunar": "31.2404568064",
                "kilometers": "12014153.717389312",
                "miles": "7465248.9517920256"
            },
            "orbiting_body": "Earth"
        },
        {
            "close_approach_date": "2010-10-14",
            "close_approach_date_full": "2010-Oct-14 08:07",
            "epoch_date_close_approach": 1287043620000,
            "relative_velocity": {
                "kilometers_per_second": "15.8983690938",
                "kilometers_per_hour": "57234.1287376865",
                "miles_per_hour": "35563.0618259252"
            },
            "miss_distance": {
                "astronomical": "0.0462871694",
                "lunar": "18.0057088966",
                "kilometers": "6924461.950569178",
                "miles": "4302661.1390355364"
            },
            "orbiting_body": "Mars"
        },
        {
            "close_approach_date": "2145-06-08",
            "close_approach_date_full": "2145-Jun-08 11:38",
            "epoch_date_close_approach": 5536208280000,
            "relative_velocity": {
                "kilometers_per_second": "33.6562871648",
                "kilometers_per_hour": "121162.6337932526",
                "miles_per_hour": "75285.7487589241"
            },
            "miss_distance": {
                "astronomical": "0.424794267",
                "lunar": "165.244969863",
                "kilometers": "63548317.53141129",
                "miles": "39487093.473164202"
            },
            "orbiting_body": "Earth"
        }
    ],
    "orbital_data": {
        "orbit_id": "11",
        "orbit_determination_date": "2017-04-06 09:01:35",
        "first_observation_date": "2009-01-21",
        "last_observation_date": "2009-02-05",
        "data_arc_in_days": 15,
        "observations_used": 40,
        "orbit_uncertainty": "8",
        "minimum_orbit_intersection": ".0690687",
        "jupiter_tisserand_invariant": "3.965",
        "epoch_osculation": "2454856.5",
        "eccentricity": ".6779265794175683",
        "semi_major_axis": "1.658470549212483",
        "inclination": "4.615172647253372",
        "ascending_node_longitude": "37.9421800612422",
        "orbital_period": "780.1175938647185",
        "perihelion_distance": ".5341492827200884",
        "perihelion_argument": "337.6101835626159",
        "aphelion_distance": "2.782791815704877",
        "perihelion_time": "2454798.398826840181",
        "mean_anomaly": "26.81188387755038",
        "mean_motion": ".4614688898587105",
        "equinox": "J2000",
        "orbit_class": {
            "orbit_class_type": "APO",
            "orbit_class_description": "Near-Earth asteroid orbits which cross the Earth’s orbit similar to that of 1862 Apollo",
            "orbit_class_range": "a (semi-major axis) > 1.0 AU; q (perihelion) < 1.017 AU"
        }
    },
    "is_sentry_object": false
}